{
  "norad_id": 54834,
  "name": "STARLINK-5386",
  "history": [
    {
      "epoch": "2026-03-28T22:00:01.999584",
      "apogee_km": 497.90158888201495,
      "perigee_km": 496.33224342311314,
      "latitude_deg": -25.27882521012834,
      "longitude_deg": 111.40222175978124,
      "semi_major_axis_km": 6875.253916152564,
      "eccentricity": 0.00011413,
      "inclination_deg": 43.0023,
      "raan_deg": 27.6314,
      "arg_perigee_deg": 261.2611,
      "mean_anomaly_deg": 39.9613,
      "mean_motion_rev_day": 15.22893906
    },
    {
      "epoch": "2026-03-29T04:00:01.999584",
      "apogee_km": 496.80855021684147,
      "perigee_km": 495.0034265280947,
      "latitude_deg": 42.850504388375164,
      "longitude_deg": 135.40222175978124,
      "semi_major_axis_km": 6874.042988372467,
      "eccentricity": 0.0001313,
      "inclination_deg": 43.0021,
      "raan_deg": 26.2306,
      "arg_perigee_deg": 276.2355,
      "mean_anomaly_deg": 317.3785,
      "mean_motion_rev_day": 15.23296332
    }
  ]
}